NORAD_CAT_ID,OBJECT_NAME,OBJECT_TYPE,EPOCH,MEAN_MOTION,ECCENTRICITY,INCLINATION,RA_OF_ASC_NODE,ARG_OF_PERICENTER,MEAN_ANOMALY,BSTAR,MEAN_MOTION_DOT,MEAN_MOTION_DDOT,TLE_LINE0,TLE_LINE1,TLE_LINE2,SEMIMAJOR_AXIS,PERIOD,APOGEE,PERIGEE,DECAYED
55781.0,STARLINK-5820,PAYLOAD,2023-05-13 20:36:53,15.69931114,0.0003441,69.9991,315.2873,260.7049,99.3757,1.9122e-05,2.088e-05,0.0,0 STARLINK-5820,1 55781U 23028AS  23133.85894882  .00002088  00000-0  19122-4 0  9992,2 55781  69.9991 315.2873 0003441 260.7049  99.3757 15.69931114 11833,6737.231,91.724,361.414,356.778,0.0
55781.0,STARLINK-5820,PAYLOAD,2023-05-13 22:08:38,15.69931811,0.0003411,69.9991,315.1081,262.0884,97.9925,2.0847e-05,2.295e-05,0.0,0 STARLINK-5820,1 55781U 23028AS  23133.92266532  .00002295  00000-0  20847-4 0  9991,2 55781  69.9991 315.1081 0003411 262.0884  97.9925 15.69931811 11848,6737.229,91.724,361.392,356.796,0.0
55781.0,STARLINK-5820,PAYLOAD,2023-05-14 13:26:09,15.69930062,0.0003511,69.9992,313.3178,272.5704,87.5089,3.2308e-05,3.675e-05,0.0,0 STARLINK-5820,1 55781U 23028AS  23134.55983207  .00003675  00000-0  32308-4 0  9994,2 55781  69.9992 313.3178 0003511 272.5704  87.5089 15.69930062 11948,6737.234,91.724,361.465,356.734,0.0
55781.0,STARLINK-5820,PAYLOAD,2023-05-14 19:33:10,15.69920647,0.0003523,69.999,312.6007,265.6182,94.4611,8.1154e-06,7.63e-06,0.0,0 STARLINK-5820,1 55781U 23028AS  23134.81470293  .00000763  00000-0  81154-5 0  9998,2 55781  69.9990 312.6007 0003523 265.6182  94.4611 15.69920647 11985,6737.261,91.724,361.5,356.752,0.0
55781.0,STARLINK-5820,PAYLOAD,2023-05-14 21:04:55,15.69920492,0.0003695,69.9988,312.4213,265.8215,94.2558,7.2862e-06,6.63e-06,0.0,0 STARLINK-5820,1 55781U 23028AS  23134.87841912  .00000663  00000-0  72862-5 0  9999,2 55781  69.9988 312.4213 0003695 265.8215  94.2558 15.69920492 11995,6737.261,91.724,361.616,356.637,0.0
55781.0,STARLINK-5820,PAYLOAD,2023-05-15 12:22:26,15.69922577,0.0003744,69.9981,310.629,264.8468,95.2301,-1.6801e-06,-4.15e-06,0.0,0 STARLINK-5820,1 55781U 23028AS  23135.51558661 -.00000415  00000-0 -16801-5 0  9995,2 55781  69.9981 310.6290 0003744 264.8468  95.2301 15.69922577 12092,6737.256,91.724,361.643,356.598,0.0
55781.0,STARLINK-5820,PAYLOAD,2023-05-15 18:29:27,15.69926978,0.0003593,69.9996,309.9125,267.6731,92.4053,2.1765e-05,2.405e-05,0.0,0 STARLINK-5820,1 55781U 23028AS  23135.77045230  .00002405  00000-0  21765-4 0  9999,2 55781  69.9996 309.9125 0003593 267.6731  92.4053 15.69926978 12139,6737.243,91.724,361.529,356.687,0.0
55781.0,STARLINK-5820,PAYLOAD,2023-05-16 12:50:28,15.69926599,0.0003589,70.0006,307.7644,265.395,94.6836,9.9257e-06,9.81e-06,0.0,0 STARLINK-5820,1 55781U 23028AS  23136.53505224  .00000981  00000-0  99257-5 0  9997,2 55781  70.0006 307.7644 0003589 265.3950  94.6836 15.69926599 12254,6737.244,91.724,361.527,356.691,0.0
55781.0,STARLINK-5820,PAYLOAD,2023-05-16 17:25:43,15.6993207,0.0003943,70.0004,307.2262,268.3508,91.7236,1.9903e-05,2.182e-05,0.0,0 STARLINK-5820,1 55781U 23028AS  23136.72619973  .00002182  00000-0  19903-4 0  9999,2 55781  70.0004 307.2262 0003943 268.3508  91.7236 15.69932070 12285,6737.228,91.724,361.75,356.437,0.0
55781.0,STARLINK-5820,PAYLOAD,2023-05-17 19:25:30,15.69933351,0.0003066,70.0001,304.18,259.1502,100.9349,1.516e-05,1.611e-05,0.0,0 STARLINK-5820,1 55781U 23028AS  23137.80938192  .00001611  00000-0  15160-4 0  9993,2 55781  70.0001 304.1800 0003066 259.1502 100.9349 15.69933351 12454,6737.225,91.724,361.155,357.024,0.0
55781.0,STARLINK-5820,PAYLOAD,2023-05-17 20:57:16,15.69922033,0.0003126,69.9999,303.9999,265.7933,94.2906,1.7252e-06,-5e-08,0.0,0 STARLINK-5820,1 55781U 23028AS  23137.87310510 -.00000005  00000-0  17252-5 0  9990,2 55781  69.9999 303.9999 0003126 265.7933  94.2906 15.69922033 12461,6737.257,91.724,361.228,357.016,0.0
55781.0,STARLINK-5820,PAYLOAD,2023-05-18 12:14:47,15.69929351,0.0003619,69.9988,302.2084,268.4065,91.6716,5.2283e-06,4.16e-06,0.0,0 STARLINK-5820,1 55781U 23028AS  23138.51026931  .00000416  00000-0  52283-5 0  9991,2 55781  69.9988 302.2084 0003619 268.4065  91.6716 15.69929351 12560,6737.236,91.724,361.539,356.663,0.0
55781.0,STARLINK-5820,PAYLOAD,2023-05-18 21:25:17,15.69931511,0.0003543,70.0014,301.1356,274.2303,85.8488,9.7644e-06,9.62e-06,0.0,0 STARLINK-5820,1 55781U 23028AS  23138.89256866  .00000962  00000-0  97644-5 0  9990,2 55781  70.0014 301.1356 0003543 274.2303  85.8488 15.69931511 12628,6737.23,91.724,361.482,356.708,0.0
55781.0,STARLINK-5820,PAYLOAD,2023-05-19 17:18:04,15.69931562,0.0003574,70.0001,298.8061,268.3555,91.7231,1.8055e-05,1.959e-05,0.0,0 STARLINK-5820,1 55781U 23028AS  23139.72088732  .00001959  00000-0  18055-4 0  9993,2 55781  70.0001 298.8061 0003574 268.3555  91.7231 15.69931562 12758,6737.23,91.724,361.503,356.687,0.0
55781.0,STARLINK-5820,PAYLOAD,2023-05-19 20:21:34,15.69933095,0.0003653,70.0001,298.4477,269.0239,91.0538,2.2126e-05,2.449e-05,0.0,0 STARLINK-5820,1 55781U 23028AS  23139.84832020  .00002449  00000-0  22126-4 0  9992,2 55781  70.0001 298.4477 0003653 269.0239  91.0538 15.69933095 12778,6737.225,91.724,361.552,356.629,0.0
55781.0,STARLINK-5820,PAYLOAD,2023-05-20 10:07:21,15.69930396,0.0003696,70.001,296.8342,273.1714,86.9059,2.2549e-05,2.5e-05,0.0,0 STARLINK-5820,1 55781U 23028AS  23140.42177288  .00002500  00000-0  22549-4 0  9993,2 55781  70.0010 296.8342 0003696 273.1714  86.9059 15.69930396 12864,6737.233,91.724,361.588,356.608,0.0
55781.0,STARLINK-5820,PAYLOAD,2023-05-20 14:42:35,15.69945715,0.0003332,70.0002,296.2962,271.2419,88.8395,6.21e-05,7.267e-05,0.0,0 STARLINK-5820,1 55781U 23028AS  23140.61291659  .00007267  00000-0  62100-4 0  9995,2 55781  70.0002 296.2962 0003332 271.2419  88.8395 15.69945715 12893,6737.189,91.723,361.299,356.809,0.0
55781.0,STARLINK-5820,PAYLOAD,2023-05-20 19:17:51,15.69946416,0.000332,70.0008,295.7584,274.5905,85.4911,6.5538e-05,7.682e-05,0.0,0 STARLINK-5820,1 55781U 23028AS  23140.80406580  .00007682  00000-0  65538-4 0  9996,2 55781  70.0008 295.7584 0003320 274.5905  85.4911 15.69946416 12926,6737.187,91.723,361.289,356.816,0.0
55781.0,STARLINK-5820,PAYLOAD,2023-05-21 13:38:54,15.69902375,0.0004203,70.0003,293.6063,292.0625,68.0124,-2.5039e-05,-3.221e-05,0.0,0 STARLINK-5820,1 55781U 23028AS  23141.56868756 -.00003221  00000-0 -25039-4 0  9996,2 55781  70.0003 293.6063 0004203 292.0625  68.0124 15.69902375 13048,6737.313,91.725,362.01,356.347,0.0
55781.0,STARLINK-5820,PAYLOAD,2023-05-21 19:45:54,15.69919869,0.0002666,70.0029,292.8941,267.3602,92.7288,7.986e-06,7.48e-06,0.0,0 STARLINK-5820,1 55781U 23028AS  23141.82354854  .00000748  00000-0  79860-5 0  9995,2 55781  70.0029 292.8941 0002666 267.3602  92.7288 15.69919869 13088,6737.263,91.724,360.924,357.332,0.0
55781.0,STARLINK-5820,PAYLOAD,2023-05-22 03:24:39,15.69937987,0.0003853,70.0013,291.9973,272.1504,87.9251,7.0359e-05,8.261e-05,0.0,0 STARLINK-5820,1 55781U 23028AS  23142.14212528  .00008261  00000-0  70359-4 0  9993,2 55781  70.0013 291.9973 0003853 272.1504  87.9251 15.69937987 13133,6737.211,91.723,361.672,356.481,0.0
55781.0,STARLINK-5820,PAYLOAD,2023-05-22 11:03:25,15.69934167,0.0003371,70.0022,291.1018,275.4741,84.6071,5.2418e-05,6.097e-05,0.0,0 STARLINK-5820,1 55781U 23028AS  23142.46071039  .00006097  00000-0  52418-4 0  9999,2 55781  70.0022 291.1018 0003371 275.4741  84.6071 15.69934167 13185,6737.222,91.724,361.358,356.816,0.0
55781.0,STARLINK-5820,PAYLOAD,2023-05-22 14:06:55,15.69926312,0.0003696,70.0012,290.7437,275.142,84.9354,2.3378e-05,2.599e-05,0.0,0 STARLINK-5820,1 55781U 23028AS  23142.58814538  .00002599  00000-0  23378-4 0  9997,2 55781  70.0012 290.7437 0003696 275.1420  84.9354 15.69926312 13208,6737.245,91.724,361.6,356.62,0.0
55781.0,STARLINK-5820,PAYLOAD,2023-05-22 20:13:56,15.6992282,0.0003669,70.0013,290.0267,272.5594,87.5181,7.5716e-06,6.98e-06,0.0,0 STARLINK-5820,1 55781U 23028AS  23142.84301317  .00000698  00000-0  75716-5 0  9994,2 55781  70.0013 290.0267 0003669 272.5594  87.5181 15.69922820 13247,6737.255,91.724,361.592,356.648,0.0
55781.0,STARLINK-5820,PAYLOAD,2023-05-23 19:10:12,15.69931201,0.0003669,70.0011,287.341,275.2287,84.849,7.961e-06,7.45e-06,0.0,0 STARLINK-5820,1 55781U 23028AS  23143.79875955  .00000745  00000-0  79610-5 0  9993,2 55781  70.0011 287.3410 0003669 275.2287  84.8490 15.69931201 13395,6737.231,91.724,361.568,356.624,0.0
55781.0,STARLINK-5820,PAYLOAD,2023-05-24 02:48:59,15.6991912,0.0003227,70.0004,286.4448,274.67,85.4127,-2.4716e-05,-3.183e-05,0.0,0 STARLINK-5820,1 55781U 23028AS  23144.11735011 -.00003183  00000-0 -24716-4 0  9995,2 55781  70.0004 286.4448 0003227 274.6700  85.4127 15.69919120 13447,6737.265,91.724,361.305,356.956,0.0
55781.0,STARLINK-5820,PAYLOAD,2023-05-25 18:34:43,15.69665885,0.0003172,70.001,281.7886,265.4332,94.6501,-0.00048249,-0.00057219,0.0,0 STARLINK-5820,1 55781U 23028AS  23145.77411817 -.00057219  00000-0 -48249-3 0  9998,2 55781  70.0010 281.7886 0003172 265.4332  94.6501 15.69665885 13709,6737.99,91.739,361.992,357.718,0.0
55781.0,STARLINK-5820,PAYLOAD,2023-05-26 17:31:24,15.69503346,0.0001986,70.0001,279.1022,281.7525,78.3447,-0.00051766,-0.00060926,0.0,0 STARLINK-5820,1 55781U 23028AS  23146.73014327 -.00060926  00000-0 -51766-3 0  9997,2 55781  70.0001 279.1022 0001986 281.7525  78.3447 15.69503346 13855,6738.455,91.749,361.658,358.982,0.0
55781.0,STARLINK-5820,PAYLOAD,2023-05-26 19:03:00,15.69802122,0.0005297,70.0001,278.9229,240.8974,119.1692,0.00012599,0.00014893,0.0,0 STARLINK-5820,1 55781U 23028AS  23146.79375820  .00014893  00000-0  12599-3 0  9992,2 55781  70.0001 278.9229 0005297 240.8974 119.1692 15.69802122 13865,6737.6,91.731,363.034,355.896,0.0
55781.0,STARLINK-5820,PAYLOAD,2023-05-26 19:03:50,15.68825489,0.0003339,70.001,278.9248,279.043,81.0387,-0.0016497,-0.00185656,0.0,0 STARLINK-5820,1 55781U 23028AS  23146.79433115 -.00185656  00000-0 -16497-2 0  9992,2 55781  70.0010 278.9248 0003339 279.0430  81.0387 15.68825489 13860,6740.396,91.788,364.512,360.01,0.0
